{
  "type": "FeatureCollection",
  "features": [
    {
      "type": "Feature",
      "properties": {
        "norad_id": 41890,
        "name": "CYGFM07",
        "group": "weather",
        "lat": 34.90678488543966,
        "lon": 19.116533720266208,
        "alt_km": 410.91076006210824,
        "timestamp": "2025-12-27T03:58:43.824518+00:00",
        "meta_object_name": "CYGFM07",
        "meta_object_id": "2016-078G",
        "meta_epoch": "2025-12-26T12:08:00.125664",
        "meta_mean_motion": 15.50595573,
        "meta_eccentricity": 0.0009083,
        "meta_inclination": 34.9475,
        "meta_ra_of_asc_node": 291.1596,
        "meta_arg_of_pericenter": 332.0459,
        "meta_mean_anomaly": 27.9775,
        "meta_ephemeris_type": 0,
        "meta_classification_type": "U",
        "meta_norad_cat_id": 41890,
        "meta_element_set_no": 999,
        "meta_rev_at_epoch": 50209,
        "meta_bstar": 0.00039275,
        "meta_mean_motion_dot": 0.00023249,
        "meta_mean_motion_ddot": 0,
        "tle_line1": "1 41890U 16078G   25360.50555701  .00023249  00000+0  39275-3 0  9996",
        "tle_line2": "2 41890  34.9475 291.1596 0009083 332.0459  27.9775 15.50595573502093"
      },
      "geometry": {
        "type": "Point",
        "coordinates": [
          19.116533720266208,
          34.90678488543966
        ]
      }
    },
    {
      "type": "Feature",
      "properties": {
        "norad_id": 41891,
        "name": "CYGFM03",
        "group": "weather",
        "lat": -34.19003365281046,
        "lon": -147.88937736279476,
        "alt_km": 412.89257023280334,
        "timestamp": "2025-12-27T03:58:43.824528+00:00",
        "meta_object_name": "CYGFM03",
        "meta_object_id": "2016-078H",
        "meta_epoch": "2025-12-26T05:08:17.981664",
        "meta_mean_motion": 15.50474136,
        "meta_eccentricity": 0.0009067,
        "meta_inclination": 34.943,
        "meta_ra_of_asc_node": 295.0003,
        "meta_arg_of_pericenter": 316.561,
        "meta_mean_anomaly": 43.4397,
        "meta_ephemeris_type": 0,
        "meta_classification_type": "U",
        "meta_norad_cat_id": 41891,
        "meta_element_set_no": 999,
        "meta_rev_at_epoch": 50202,
        "meta_bstar": 0.00038802,
        "meta_mean_motion_dot": 0.00022868,
        "meta_mean_motion_ddot": 0,
        "tle_line1": "1 41891U 16078H   25360.21409701  .00022868  00000+0  38802-3 0  9994",
        "tle_line2": "2 41891  34.9430 295.0003 0009067 316.5610  43.4397 15.50474136502026"
      },
      "geometry": {
        "type": "Point",
        "coordinates": [
          -147.88937736279476,
          -34.19003365281046
        ]
      }
    },
    {
      "type": "Feature",
      "properties": {
        "norad_id": 43010,
        "name": "FENGYUN 3D",
        "group": "weather",
        "lat": -73.48122115901334,
        "lon": 115.42471244708847,
        "alt_km": 834.1230672681086,
        "timestamp": "2025-12-27T03:58:43.824538+00:00",
        "meta_object_name": "FENGYUN 3D",
        "meta_object_id": "2017-072A",
        "meta_epoch": "2025-12-26T21:42:07.445376",
        "meta_mean_motion": 14.19687831,
        "meta_eccentricity": 0.0001641,
        "meta_inclination": 98.9916,
        "meta_ra_of_asc_node": 327.4277,
        "meta_arg_of_pericenter": 145.0024,
        "meta_mean_anomaly": 215.126,
        "meta_ephemeris_type": 0,
        "meta_classification_type": "U",
        "meta_norad_cat_id": 43010,
        "meta_element_set_no": 999,
        "meta_rev_at_epoch": 42054,
        "meta_bstar": 7.6755e-05,
        "meta_mean_motion_dot": 1.16e-06,
        "meta_mean_motion_ddot": 0,
        "tle_line1": "1 43010U 17072A   25360.90425284  .00000116  00000+0  76755-4 0  9996",
        "tle_line2": "2 43010  98.9916 327.4277 0001641 145.0024 215.1260 14.19687831420542"
      },
      "geometry": {
        "type": "Point",
        "coordinates": [
          115.42471244708847,
          -73.48122115901334
        ]
      }
    },
    {
      "type": "Feature",
      "properties": {
        "norad_id": 43013,
        "name": "NOAA 20 (JPSS-1)",
        "group": "weather",
        "lat": 39.2207836551818,
        "lon": -69.9252408941189,
        "alt_km": 822.5807067898004,
        "timestamp": "2025-12-27T03:58:43.824547+00:00",
        "meta_object_name": "NOAA 20 (JPSS-1)",
        "meta_object_id": "2017-073A",
        "meta_epoch": "2025-12-26T19:20:01.965984",
        "meta_mean_motion": 14.19529525,
        "meta_eccentricity": 0.0002051,
        "meta_inclination": 98.7616,
        "meta_ra_of_asc_node": 296.9496,
        "meta_arg_of_pericenter": 67.1823,
        "meta_mean_anomaly": 292.957,
        "meta_ephemeris_type": 0,
        "meta_classification_type": "U",
        "meta_norad_cat_id": 43013,
        "meta_element_set_no": 999,
        "meta_rev_at_epoch": 42001,
        "meta_bstar": 7.3196e-05,
        "meta_mean_motion_dot": 1.1e-06,
        "meta_mean_motion_ddot": 0,
        "tle_line1": "1 43013U 17073A   25360.80557831  .00000110  00000+0  73196-4 0  9993",
        "tle_line2": "2 43013  98.7616 296.9496 0002051  67.1823 292.9570 14.19529525420014"
      },
      "geometry": {
        "type": "Point",
        "coordinates": [
          -69.9252408941189,
          39.2207836551818
        ]
      }
    },
    {
      "type": "Feature",
      "properties": {
        "norad_id": 43226,
        "name": "GOES 17",
        "group": "weather",
        "lat": -0.17603296371670768,
        "lon": 66.098497448333,
        "alt_km": 35797.41506781579,
        "timestamp": "2025-12-27T03:58:43.824558+00:00",
        "meta_object_name": "GOES 17",
        "meta_object_id": "2018-022A",
        "meta_epoch": "2025-12-26T13:28:40.537056",
        "meta_mean_motion": 1.0027151,
        "meta_eccentricity": 0.0003196,
        "meta_inclination": 0.4913,
        "meta_ra_of_asc_node": 89.0151,
        "meta_arg_of_pericenter": 191.2344,
        "meta_mean_anomaly": 287.726,
        "meta_ephemeris_type": 0,
        "meta_classification_type": "U",
        "meta_norad_cat_id": 43226,
        "meta_element_set_no": 999,
        "meta_rev_at_epoch": 2869,
        "meta_bstar": 0,
        "meta_mean_motion_dot": -1.61e-06,
        "meta_mean_motion_ddot": 0,
        "tle_line1": "1 43226U 18022A   25360.56158029 -.00000161  00000+0  00000+0 0  9999",
        "tle_line2": "2 43226   0.4913  89.0151 0003196 191.2344 287.7260  1.00271510 28697"
      },
      "geometry": {
        "type": "Point",
        "coordinates": [
          66.098497448333,
          -0.17603296371670768
        ]
      }
    },
    {
      "type": "Feature",
      "properties": {
        "norad_id": 43491,
        "name": "FENGYUN 2H",
        "group": "weather",
        "lat": 1.1324786283117614,
        "lon": -125.08000039302772,
        "alt_km": 35776.243581055896,
        "timestamp": "2025-12-27T03:58:43.824570+00:00",
        "meta_object_name": "FENGYUN 2H",
        "meta_object_id": "2018-050A",
        "meta_epoch": "2025-12-26T19:54:42.183360",
        "meta_mean_motion": 1.00270085,
        "meta_eccentricity": 0.0002477,
        "meta_inclination": 2.5849,
        "meta_ra_of_asc_node": 81.1807,
        "meta_arg_of_pericenter": 167.0263,
        "meta_mean_anomaly": 225.3647,
        "meta_ephemeris_type": 0,
        "meta_classification_type": "U",
        "meta_norad_cat_id": 43491,
        "meta_element_set_no": 999,
        "meta_rev_at_epoch": 2771,
        "meta_bstar": 0,
        "meta_mean_motion_dot": -1.08e-06,
        "meta_mean_motion_ddot": 0,
        "tle_line1": "1 43491U 18050A   25360.82965490 -.00000108  00000+0  00000+0 0  9992",
        "tle_line2": "2 43491   2.5849  81.1807 0002477 167.0263 225.3647  1.00270085 27710"
      },
      "geometry": {
        "type": "Point",
        "coordinates": [
          -125.08000039302772,
          1.1324786283117614
        ]
      }
    },
    {
      "type": "Feature",
      "properties": {
        "norad_id": 43689,
        "name": "METOP-C",
        "group": "weather",
        "lat": -74.89929696430168,
        "lon": 93.24447847312972,
        "alt_km": 827.6042990839669,
        "timestamp": "2025-12-27T03:58:43.824580+00:00",
        "meta_object_name": "METOP-C",
        "meta_object_id": "2018-087A",
        "meta_epoch": "2025-12-26T18:12:26.908992",
        "meta_mean_motion": 14.21489651,
        "meta_eccentricity": 5.44e-05,
        "meta_inclination": 98.691,
        "meta_ra_of_asc_node": 58.3121,
        "meta_arg_of_pericenter": 12.0062,
        "meta_mean_anomaly": 348.1128,
        "meta_ephemeris_type": 0,
        "meta_classification_type": "U",
        "meta_norad_cat_id": 43689,
        "meta_element_set_no": 999,
        "meta_rev_at_epoch": 37033,
        "meta_bstar": 8.2625e-05,
        "meta_mean_motion_dot": 1.37e-06,
        "meta_mean_motion_ddot": 0,
        "tle_line1": "1 43689U 18087A   25360.75864478  .00000137  00000+0  82625-4 0  9996",
        "tle_line2": "2 43689  98.6910  58.3121 0000544  12.0062 348.1128 14.21489651370333"
      },
      "geometry": {
        "type": "Point",
        "coordinates": [
          93.24447847312972,
          -74.89929696430168
        ]
      }
    }
  ]
}